SENTINEL-6A             
1 46984U 20086A   26197.05165486 -.00000036  00000+0  10728-3 0  9997
2 46984  66.0412  75.1016 0007785 269.7329  90.2794 12.80930199264024
SENTINEL-6B             
1 66514U 25264A   26197.05200290 -.00000040  00000+0  90619-4 0  9997
2 66514  66.0412  75.2271 0007847 268.7058  91.3058 12.80930161 30863
