{"fetched_at":"2026-07-16T17:46:57.236Z","source":"https://celestrak.org/NORAD/elements/gp.php?NAME=SENTINEL&FORMAT=JSON","constellation":"sentinel-6","records":[{"OBJECT_NAME":"SENTINEL-6A","OBJECT_ID":"2020-086A","EPOCH":"2026-07-16T01:14:22.979904","CLASSIFICATION_TYPE":"U","MEAN_MOTION":12.80930199,"ECCENTRICITY":0.00077859,"INCLINATION":66.0412,"RA_OF_ASC_NODE":75.1016,"ARG_OF_PERICENTER":269.7329,"MEAN_ANOMALY":90.2794,"EPHEMERIS_TYPE":0,"NORAD_CAT_ID":46984,"ELEMENT_SET_NO":999,"REV_AT_EPOCH":26402,"BSTAR":0.00010728445,"MEAN_MOTION_DOT":-3.6e-7,"MEAN_MOTION_DDOT":0},{"OBJECT_NAME":"SENTINEL-6B","OBJECT_ID":"2025-264A","EPOCH":"2026-07-16T01:14:53.050560","CLASSIFICATION_TYPE":"U","MEAN_MOTION":12.80930161,"ECCENTRICITY":0.00078472,"INCLINATION":66.0412,"RA_OF_ASC_NODE":75.2271,"ARG_OF_PERICENTER":268.7058,"MEAN_ANOMALY":91.3058,"EPHEMERIS_TYPE":0,"NORAD_CAT_ID":66514,"ELEMENT_SET_NO":999,"REV_AT_EPOCH":3086,"BSTAR":0.000090618675,"MEAN_MOTION_DOT":-4e-7,"MEAN_MOTION_DDOT":0}]}
